[
  {
    "name": "STARLINK-32036",
    "noradId": "60141",
    "line1": "1 60141U 24120G   26167.40892410  .00000047  00000+0  12520-4 0  9995",
    "line2": "2 60141  53.1600 221.1653 0001037  86.1676 273.9445 15.34392806111574"
  },
  {
    "name": "STARLINK-32031",
    "noradId": "60142",
    "line1": "1 60142U 24120H   26167.41935740 -.00000500  00000+0 -36662-5 0  9991",
    "line2": "2 60142  53.1600 220.5248 0001342  86.9616 273.1540 15.34391636111588"
  },
  {
    "name": "STARLINK-32027",
    "noradId": "60143",
    "line1": "1 60143U 24120J   26167.42355234  .00000226  00000+0  17826-4 0  9990",
    "line2": "2 60143  53.1597 220.5037 0001173  79.5205 280.5930 15.34399978111586"
  },
  {
    "name": "STARLINK-32033",
    "noradId": "60144",
    "line1": "1 60144U 24120K   26167.58334491  .00055052  00000+0  16759-2 0  9999",
    "line2": "2 60144  53.1592 220.3938 0001332  67.5481 156.7056 15.33492902  5866"
  },
  {
    "name": "STARLINK-32029",
    "noradId": "60145",
    "line1": "1 60145U 24120L   26167.43408166  .00000356  00000+0  21677-4 0  9999",
    "line2": "2 60145  53.1604 220.6118 0001181  85.4693 274.6445 15.34394942111507"
  },
  {
    "name": "STARLINK-32127",
    "noradId": "60146",
    "line1": "1 60146U 24120M   26167.62528493 -.00000581  00000+0 -60528-5 0  9998",
    "line2": "2 60146  53.1604 219.6717 0001251 111.4859 248.6277 15.34390831111533"
  },
  {
    "name": "STARLINK-32019",
    "noradId": "60147",
    "line1": "1 60147U 24120N   26167.43198188  .00001905  00000+0  67532-4 0  9992",
    "line2": "2 60147  53.1590 220.6011 0001414  87.3275 272.7889 15.34393785111506"
  },
  {
    "name": "STARLINK-32021",
    "noradId": "60148",
    "line1": "1 60148U 24120P   26167.38650825 -.00000518  00000+0 -49445-5 0  9993",
    "line2": "2 60148  53.1597 211.0731 0000927  73.3137 286.7967 15.31698727111713"
  },
  {
    "name": "STARLINK-32022",
    "noradId": "60149",
    "line1": "1 60149U 24120Q   26167.38788832  .00001829  00000+0  65285-4 0  9997",
    "line2": "2 60149  53.1605 221.0335 0001179  81.2411 278.8725 15.34388716111573"
  },
  {
    "name": "STARLINK-32014",
    "noradId": "60150",
    "line1": "1 60150U 24120R   26167.58334491  .00058620  00000+0  17354-2 0  9992",
    "line2": "2 60150  53.1594 220.3254 0001184  69.6403 186.0085 15.34347929  5865"
  },
  {
    "name": "STARLINK-32004",
    "noradId": "60151",
    "line1": "1 60151U 24120S   26167.46564465  .00000185  00000+0  16600-4 0  9994",
    "line2": "2 60151  53.1608 220.8057 0001204  76.1963 283.9173 15.34391138111588"
  },
  {
    "name": "STARLINK-32147",
    "noradId": "60152",
    "line1": "1 60152U 24120T   26167.45512913  .00000369  00000+0  22074-4 0  9991",
    "line2": "2 60152  53.1599 220.7453 0001164  82.0060 278.1075 15.34389806111504"
  },
  {
    "name": "STARLINK-32131",
    "noradId": "60153",
    "line1": "1 60153U 24120U   26167.42777240  .00000294  00000+0  19830-4 0  9998",
    "line2": "2 60153  53.1603 220.5724 0001129  86.4337 273.6795 15.34389988111584"
  },
  {
    "name": "STARLINK-32145",
    "noradId": "60154",
    "line1": "1 60154U 24120V   26167.42566714 -.00000100  00000+0  81785-5 0  9997",
    "line2": "2 60154  53.1599 220.5550 0001140  74.7866 285.3263 15.34395358111506"
  },
  {
    "name": "STARLINK-32137",
    "noradId": "60155",
    "line1": "1 60155U 24120W   26167.44670784  .00000599  00000+0  28851-4 0  9998",
    "line2": "2 60155  53.1600 220.6871 0001039  94.9580 265.1542 15.34392837111506"
  },
  {
    "name": "STARLINK-32048",
    "noradId": "60156",
    "line1": "1 60156U 24120X   26167.44039909 -.00000415  00000+0 -11507-5 0  9997",
    "line2": "2 60156  53.1603 220.6486 0001131  97.9927 262.1204 15.34390551111506"
  },
  {
    "name": "STARLINK-32129",
    "noradId": "60157",
    "line1": "1 60157U 24120Y   26167.44249766  .00000845  00000+0  36134-4 0  9999",
    "line2": "2 60157  53.1603 220.6633 0001084  87.0228 273.0899 15.34399783111587"
  },
  {
    "name": "STARLINK-11168 [DTC]",
    "noradId": "60183",
    "line1": "1 60183U 24124A   26166.92161876  .00006216  00000+0  56217-4 0  9991",
    "line2": "2 60183  53.1589  36.9297 0001688  18.7199 341.3881 15.69671825113154"
  },
  {
    "name": "STARLINK-11187 [DTC]",
    "noradId": "60184",
    "line1": "1 60184U 24124B   26167.36238508 -.00000265  00000+0  26661-5 0  9998",
    "line2": "2 60184  53.1599  34.6989 0000919  85.6263 274.4860 15.69712877112032"
  },
  {
    "name": "STARLINK-11180 [DTC]",
    "noradId": "60185",
    "line1": "1 60185U 24124C   26167.35747540  .00000017  00000+0  49931-5 0  9998",
    "line2": "2 60185  53.1595  34.6658 0000732  77.0278 283.0821 15.69717537112037"
  },
  {
    "name": "STARLINK-11197 [DTC]",
    "noradId": "60186",
    "line1": "1 60186U 24124D   26167.35257854 -.00000173  00000+0  34250-5 0  9995",
    "line2": "2 60186  53.1596  34.6323 0000964  88.8891 271.2237 15.69706448112035"
  },
  {
    "name": "STARLINK-11194 [DTC]",
    "noradId": "60187",
    "line1": "1 60187U 24124E   26167.34767111 -.00000556  00000+0  26207-6 0  9996",
    "line2": "2 60187  53.1590  34.5995 0000881  92.0857 268.0261 15.69709441112038"
  },
  {
    "name": "STARLINK-11189 [DTC]",
    "noradId": "60188",
    "line1": "1 60188U 24124F   26167.34286602  .00000951  00000+0  12703-4 0  9990",
    "line2": "2 60188  53.1598  35.2999 0001104  75.4500 284.6640 15.69711566112023"
  },
  {
    "name": "STARLINK-11183 [DTC]",
    "noradId": "60189",
    "line1": "1 60189U 24124G   26167.33795974  .00000355  00000+0  77823-5 0  9990",
    "line2": "2 60189  53.1594  35.2683 0000829  98.6540 261.4572 15.69713021112029"
  },
  {
    "name": "STARLINK-11179 [DTC]",
    "noradId": "60190",
    "line1": "1 60190U 24124H   26167.33305279  .00000351  00000+0  77569-5 0  9990",
    "line2": "2 60190  53.1594  35.2357 0001092  65.6825 294.4306 15.69713870112025"
  },
  {
    "name": "STARLINK-11175 [DTC]",
    "noradId": "60191",
    "line1": "1 60191U 24124J   26166.94613631 -.00000480  00000+0  89856-6 0  9998",
    "line2": "2 60191  53.1599  37.0860 0001069  96.1558 263.9582 15.69712266111963"
  },
  {
    "name": "STARLINK-11173 [DTC]",
    "noradId": "60192",
    "line1": "1 60192U 24124K   26166.94122999 -.00000685  00000+0 -79978-6 0  9993",
    "line2": "2 60192  53.1600  37.0541 0001047  87.3563 272.7575 15.69708798111962"
  },
  {
    "name": "STARLINK-11172 [DTC]",
    "noradId": "60193",
    "line1": "1 60193U 24124L   26166.93632213 -.00000369  00000+0  18116-5 0  9992",
    "line2": "2 60193  53.1592  37.0198 0000901  82.8820 277.2300 15.69711053111969"
  },
  {
    "name": "STARLINK-11152 [DTC]",
    "noradId": "60194",
    "line1": "1 60194U 24124M   26166.93141897  .00001339  00000+0  15907-4 0  9997",
    "line2": "2 60194  53.1578  36.9868 0000912  80.4920 279.6201 15.69711850113157"
  },
  {
    "name": "STARLINK-11193 [DTC]",
    "noradId": "60195",
    "line1": "1 60195U 24124N   26166.92651502 -.00000564  00000+0  20136-6 0  9998",
    "line2": "2 60195  53.1592  36.9540 0000917  89.5718 270.5405 15.69708099111965"
  }
]