OBJECT_NAME,OBJECT_ID,EPOCH,MEAN_MOTION,ECCENTRICITY,INCLINATION,RA_OF_ASC_NODE,ARG_OF_PERICENTER,MEAN_ANOMALY,EPHEMERIS_TYPE,CLASSIFICATION_TYPE,NORAD_CAT_ID,ELEMENT_SET_NO,REV_AT_EPOCH,BSTAR,MEAN_MOTION_DOT,MEAN_MOTION_DDOT
STARLINK-32036,2024-120G,2026-06-16T09:48:51.042240,15.34392806,.00010378,53.1600,221.1653,86.1676,273.9445,0,U,60141,999,11157,.12520329E-4,.47E-6,0
STARLINK-32031,2024-120H,2026-06-16T10:03:52.479360,15.34391636,.0001342,53.1600,220.5248,86.9616,273.1540,0,U,60142,999,11158,-.366616E-5,-.5E-5,0
STARLINK-32027,2024-120J,2026-06-16T10:09:54.922176,15.34399978,.00011732,53.1597,220.5037,79.5205,280.5930,0,U,60143,999,11158,.1782567E-4,.226E-5,0
STARLINK-32033,2024-120K,2026-06-16T14:00:01.000224,15.33492902,.00013326,53.1592,220.3938,67.5481,156.7056,0,U,60144,999,586,.16759029E-2,.55052E-3,0
STARLINK-32029,2024-120L,2026-06-16T10:25:04.655424,15.34394942,.00011813,53.1604,220.6118,85.4693,274.6445,0,U,60145,999,11150,.21677073E-4,.356E-5,0
STARLINK-32127,2024-120M,2026-06-16T15:00:24.617952,15.34390831,.00012514,53.1604,219.6717,111.4859,248.6277,0,U,60146,999,11153,-.6052835E-5,-.581E-5,0
STARLINK-32019,2024-120N,2026-06-16T10:22:03.234432,15.34393785,.00014145,53.1590,220.6011,87.3275,272.7889,0,U,60147,999,11150,.67531902E-4,.1905E-4,0
STARLINK-32021,2024-120P,2026-06-16T09:16:34.312800,15.31698727,.0000927,53.1597,211.0731,73.3137,286.7967,0,U,60148,999,11171,-.49445E-5,-.518E-5,0
STARLINK-32022,2024-120Q,2026-06-16T09:18:33.550848,15.34388716,.00011792,53.1605,221.0335,81.2411,278.8725,0,U,60149,999,11157,.65285352E-4,.1829E-4,0
STARLINK-32014,2024-120R,2026-06-16T14:00:01.000224,15.34347929,.00011848,53.1594,220.3254,69.6403,186.0085,0,U,60150,999,586,.17354344E-2,.5862E-3,0
STARLINK-32004,2024-120S,2026-06-16T11:10:31.697760,15.34391138,.00012042,53.1608,220.8057,76.1963,283.9173,0,U,60151,999,11158,.1660004E-4,.185E-5,0
STARLINK-32147,2024-120T,2026-06-16T10:55:23.156832,15.34389806,.00011648,53.1599,220.7453,82.0060,278.1075,0,U,60152,999,11150,.22074191E-4,.369E-5,0
STARLINK-32131,2024-120U,2026-06-16T10:15:59.535360,15.34389988,.00011299,53.1603,220.5724,86.4337,273.6795,0,U,60153,999,11158,.198304E-4,.294E-5,0
STARLINK-32145,2024-120V,2026-06-16T10:12:57.640896,15.34395358,.00011405,53.1599,220.5550,74.7866,285.3263,0,U,60154,999,11150,.8178532E-5,-.1E-5,0
STARLINK-32137,2024-120W,2026-06-16T10:43:15.557376,15.34392837,.00010392,53.1600,220.6871,94.9580,265.1542,0,U,60155,999,11150,.28851176E-4,.599E-5,0
STARLINK-32048,2024-120X,2026-06-16T10:34:10.481376,15.34390551,.00011313,53.1603,220.6486,97.9927,262.1204,0,U,60156,999,11150,-.1150721E-5,-.415E-5,0
STARLINK-32129,2024-120Y,2026-06-16T10:37:11.797824,15.34399783,.00010846,53.1603,220.6633,87.0228,273.0899,0,U,60157,999,11158,.36134264E-4,.845E-5,0
STARLINK-11168 [DTC],2024-124A,2026-06-15T22:07:07.860864,15.69671825,.0001688,53.1589,36.9297,18.7199,341.3881,0,U,60183,999,11315,.56217E-4,.6216E-4,0
STARLINK-11187 [DTC],2024-124B,2026-06-16T08:41:50.070912,15.69712877,.00009192,53.1599,34.6989,85.6263,274.4860,0,U,60184,999,11203,.2666126E-5,-.265E-5,0
STARLINK-11180 [DTC],2024-124C,2026-06-16T08:34:45.874560,15.69717537,.00007322,53.1595,34.6658,77.0278,283.0821,0,U,60185,999,11203,.4993059E-5,.17E-6,0
STARLINK-11197 [DTC],2024-124D,2026-06-16T08:27:42.785856,15.69706448,.00009647,53.1596,34.6323,88.8891,271.2237,0,U,60186,999,11203,.3425031E-5,-.173E-5,0
STARLINK-11194 [DTC],2024-124E,2026-06-16T08:20:38.783904,15.69709441,.00008813,53.1590,34.5995,92.0857,268.0261,0,U,60187,999,11203,.262072E-6,-.556E-5,0
STARLINK-11189 [DTC],2024-124F,2026-06-16T08:13:43.624128,15.69711566,.00011046,53.1598,35.2999,75.4500,284.6640,0,U,60188,999,11202,.12702529E-4,.951E-5,0
STARLINK-11183 [DTC],2024-124G,2026-06-16T08:06:39.721536,15.69713021,.00008299,53.1594,35.2683,98.6540,261.4572,0,U,60189,999,11202,.7782306E-5,.355E-5,0
STARLINK-11179 [DTC],2024-124H,2026-06-16T07:59:35.761056,15.69713870,.00010927,53.1594,35.2357,65.6825,294.4306,0,U,60190,999,11202,.7756934E-5,.351E-5,0
STARLINK-11175 [DTC],2024-124J,2026-06-15T22:42:26.177184,15.69712266,.0001069,53.1599,37.0860,96.1558,263.9582,0,U,60191,999,11196,.89856E-6,-.48E-5,0
STARLINK-11173 [DTC],2024-124K,2026-06-15T22:35:22.271136,15.69708798,.0001047,53.1600,37.0541,87.3563,272.7575,0,U,60192,999,11196,-.79978E-6,-.685E-5,0
STARLINK-11172 [DTC],2024-124L,2026-06-15T22:28:18.232032,15.69711053,.0000901,53.1592,37.0198,82.8820,277.2300,0,U,60193,999,11196,.18116E-5,-.369E-5,0
STARLINK-11152 [DTC],2024-124M,2026-06-15T22:21:14.599008,15.69711850,.0000912,53.1578,36.9868,80.4920,279.6201,0,U,60194,999,11315,.15907E-4,.1339E-4,0
STARLINK-11193 [DTC],2024-124N,2026-06-15T22:14:10.897728,15.69708099,.0000917,53.1592,36.9540,89.5718,270.5405,0,U,60195,999,11196,.20136E-6,-.564E-5,0
